{
  "type": "FeatureCollection",
  "features": [
    {
      "type": "Feature",
      "properties": {
        "norad_id": 37781,
        "name": "HAIYANG-2A",
        "group": "resource",
        "lat": -22.93696566814903,
        "lon": 0.27239212855163353,
        "alt_km": 973.4241195360346,
        "timestamp": "2025-12-21T11:31:42.498690+00:00",
        "meta_object_name": "HAIYANG-2A",
        "meta_object_id": "2011-043A",
        "meta_epoch": "2025-12-21T04:40:29.771328",
        "meta_mean_motion": 13.78836321,
        "meta_eccentricity": 0.0001646,
        "meta_inclination": 99.3371,
        "meta_ra_of_asc_node": 355.999,
        "meta_arg_of_pericenter": 72.7436,
        "meta_mean_anomaly": 287.3896,
        "meta_ephemeris_type": 0,
        "meta_classification_type": "U",
        "meta_norad_cat_id": 37781,
        "meta_element_set_no": 999,
        "meta_rev_at_epoch": 72215,
        "meta_bstar": 9.884e-05,
        "meta_mean_motion_dot": 5.7e-07,
        "meta_mean_motion_ddot": 0,
        "tle_line1": "1 37781U 11043A   25355.19478902  .00000057  00000+0  98840-4 0  9999",
        "tle_line2": "2 37781  99.3371 355.9990 0001646  72.7436 287.3896 13.78836321722158"
      },
      "geometry": {
        "type": "Point",
        "coordinates": [
          0.27239212855163353,
          -22.93696566814903
        ]
      }
    },
    {
      "type": "Feature",
      "properties": {
        "norad_id": 37791,
        "name": "RASAT",
        "group": "resource",
        "lat": 11.567142687599668,
        "lon": 82.94551267215286,
        "alt_km": 655.5736447471982,
        "timestamp": "2025-12-21T11:31:42.498701+00:00",
        "meta_object_name": "RASAT",
        "meta_object_id": "2011-044D",
        "meta_epoch": "2025-12-21T05:12:57.591072",
        "meta_mean_motion": 14.67919069,
        "meta_eccentricity": 0.00215,
        "meta_inclination": 98.0653,
        "meta_ra_of_asc_node": 84.3495,
        "meta_arg_of_pericenter": 39.5274,
        "meta_mean_anomaly": 23.2873,
        "meta_ephemeris_type": 0,
        "meta_classification_type": "U",
        "meta_norad_cat_id": 37791,
        "meta_element_set_no": 999,
        "meta_rev_at_epoch": 76707,
        "meta_bstar": 2.4358e-05,
        "meta_mean_motion_dot": 9.1e-07,
        "meta_mean_motion_ddot": 0,
        "tle_line1": "1 37791U 11044D   25355.21733323  .00000091  00000+0  24358-4 0  9996",
        "tle_line2": "2 37791  98.0653  84.3495 0021500  39.5274  23.2873 14.67919069767075"
      },
      "geometry": {
        "type": "Point",
        "coordinates": [
          82.94551267215286,
          11.567142687599668
        ]
      }
    },
    {
      "type": "Feature",
      "properties": {
        "norad_id": 37841,
        "name": "SRMSAT",
        "group": "resource",
        "lat": -16.16077079680151,
        "lon": 2.1254810280741783,
        "alt_km": 855.7917628467058,
        "timestamp": "2025-12-21T11:31:42.498712+00:00",
        "meta_object_name": "SRMSAT",
        "meta_object_id": "2011-058D",
        "meta_epoch": "2025-12-21T05:09:06.002784",
        "meta_mean_motion": 14.11514057,
        "meta_eccentricity": 0.0011964,
        "meta_inclination": 19.9726,
        "meta_ra_of_asc_node": 56.6591,
        "meta_arg_of_pericenter": 46.4433,
        "meta_mean_anomaly": 346.0318,
        "meta_ephemeris_type": 0,
        "meta_classification_type": "U",
        "meta_norad_cat_id": 37841,
        "meta_element_set_no": 999,
        "meta_rev_at_epoch": 73264,
        "meta_bstar": 6.4008e-05,
        "meta_mean_motion_dot": 3.83e-06,
        "meta_mean_motion_ddot": 0,
        "tle_line1": "1 37841U 11058D   25355.21465281  .00000383  00000+0  64008-4 0  9992",
        "tle_line2": "2 37841  19.9726  56.6591 0011964  46.4433 346.0318 14.11514057732642"
      },
      "geometry": {
        "type": "Point",
        "coordinates": [
          2.1254810280741783,
          -16.16077079680151
        ]
      }
    },
    {
      "type": "Feature",
      "properties": {
        "norad_id": 38012,
        "name": "PLEIADES 1A",
        "group": "resource",
        "lat": -52.62852396719039,
        "lon": -122.74395046917985,
        "alt_km": 705.5219419613104,
        "timestamp": "2025-12-21T11:31:42.498723+00:00",
        "meta_object_name": "PLEIADES 1A",
        "meta_object_id": "2011-076F",
        "meta_epoch": "2025-12-21T05:49:43.600800",
        "meta_mean_motion": 14.58568059,
        "meta_eccentricity": 0.000115,
        "meta_inclination": 98.1822,
        "meta_ra_of_asc_node": 67.8806,
        "meta_arg_of_pericenter": 76.645,
        "meta_mean_anomaly": 350.4109,
        "meta_ephemeris_type": 0,
        "meta_classification_type": "U",
        "meta_norad_cat_id": 38012,
        "meta_element_set_no": 999,
        "meta_rev_at_epoch": 74605,
        "meta_bstar": 3.8402e-05,
        "meta_mean_motion_dot": 1.33e-06,
        "meta_mean_motion_ddot": 0,
        "tle_line1": "1 38012U 11076F   25355.24286575  .00000133  00000+0  38402-4 0  9995",
        "tle_line2": "2 38012  98.1822  67.8806 0001150  76.6450 350.4109 14.58568059746051"
      },
      "geometry": {
        "type": "Point",
        "coordinates": [
          -122.74395046917985,
          -52.62852396719039
        ]
      }
    },
    {
      "type": "Feature",
      "properties": {
        "norad_id": 38038,
        "name": "ZIYUAN 1-02C (ZY 1-02C)",
        "group": "resource",
        "lat": -35.34342309035547,
        "lon": -124.70600628909602,
        "alt_km": 772.2305689862187,
        "timestamp": "2025-12-21T11:31:42.498733+00:00",
        "meta_object_name": "ZIYUAN 1-02C (ZY 1-02C)",
        "meta_object_id": "2011-079A",
        "meta_epoch": "2025-12-21T04:14:31.426368",
        "meta_mean_motion": 14.38020552,
        "meta_eccentricity": 0.0007464,
        "meta_inclination": 98.4329,
        "meta_ra_of_asc_node": 61.0351,
        "meta_arg_of_pericenter": 116.42,
        "meta_mean_anomaly": 328.3899,
        "meta_ephemeris_type": 0,
        "meta_classification_type": "U",
        "meta_norad_cat_id": 38038,
        "meta_element_set_no": 999,
        "meta_rev_at_epoch": 73362,
        "meta_bstar": 0.00010805,
        "meta_mean_motion_dot": 2.84e-06,
        "meta_mean_motion_ddot": 0,
        "tle_line1": "1 38038U 11079A   25355.17675262  .00000284  00000+0  10805-3 0  9996",
        "tle_line2": "2 38038  98.4329  61.0351 0007464 116.4200 328.3899 14.38020552733623"
      },
      "geometry": {
        "type": "Point",
        "coordinates": [
          -124.70600628909602,
          -35.34342309035547
        ]
      }
    },
    {
      "type": "Feature",
      "properties": {
        "norad_id": 38338,
        "name": "ARIRANG-3 (KOMPSAT-3)",
        "group": "resource",
        "lat": -49.24269346820565,
        "lon": 120.3442180149132,
        "alt_km": 693.7878752930792,
        "timestamp": "2025-12-21T11:31:42.498744+00:00",
        "meta_object_name": "ARIRANG-3 (KOMPSAT-3)",
        "meta_object_id": "2012-025B",
        "meta_epoch": "2025-12-21T03:54:28.977696",
        "meta_mean_motion": 14.61722609,
        "meta_eccentricity": 0.0004862,
        "meta_inclination": 98.3335,
        "meta_ra_of_asc_node": 309.8161,
        "meta_arg_of_pericenter": 309.2097,
        "meta_mean_anomaly": 50.8671,
        "meta_ephemeris_type": 0,
        "meta_classification_type": "U",
        "meta_norad_cat_id": 38338,
        "meta_element_set_no": 999,
        "meta_rev_at_epoch": 72533,
        "meta_bstar": 8.6299e-05,
        "meta_mean_motion_dot": 3.81e-06,
        "meta_mean_motion_ddot": 0,
        "tle_line1": "1 38338U 12025B   25355.16283539  .00000381  00000+0  86299-4 0  9991",
        "tle_line2": "2 38338  98.3335 309.8161 0004862 309.2097  50.8671 14.61722609725331"
      },
      "geometry": {
        "type": "Point",
        "coordinates": [
          120.3442180149132,
          -49.24269346820565
        ]
      }
    },
    {
      "type": "Feature",
      "properties": {
        "norad_id": 38709,
        "name": "EXACTVIEW-1 (ADS-1B)",
        "group": "resource",
        "lat": 28.000276190389776,
        "lon": -71.13204612250738,
        "alt_km": 814.8890177301228,
        "timestamp": "2025-12-21T11:31:42.498755+00:00",
        "meta_object_name": "EXACTVIEW-1 (ADS-1B)",
        "meta_object_id": "2012-039C",
        "meta_epoch": "2025-12-21T00:42:28.133856",
        "meta_mean_motion": 14.24910952,
        "meta_eccentricity": 0.001027,
        "meta_inclination": 98.9639,
        "meta_ra_of_asc_node": 103.5935,
        "meta_arg_of_pericenter": 329.6002,
        "meta_mean_anomaly": 30.458,
        "meta_ephemeris_type": 0,
        "meta_classification_type": "U",
        "meta_norad_cat_id": 38709,
        "meta_element_set_no": 999,
        "meta_rev_at_epoch": 69733,
        "meta_bstar": 6.1054e-05,
        "meta_mean_motion_dot": 9.6e-07,
        "meta_mean_motion_ddot": 0,
        "tle_line1": "1 38709U 12039C   25355.02949229  .00000096  00000+0  61054-4 0  9993",
        "tle_line2": "2 38709  98.9639 103.5935 0010270 329.6002  30.4580 14.24910952697336"
      },
      "geometry": {
        "type": "Point",
        "coordinates": [
          -71.13204612250738,
          28.000276190389776
        ]
      }
    }
  ]
}